OBJECT_NAME,OBJECT_ID,EPOCH,MEAN_MOTION,ECCENTRICITY,INCLINATION,RA_OF_ASC_NODE,ARG_OF_PERICENTER,MEAN_ANOMALY,EPHEMERIS_TYPE,CLASSIFICATION_TYPE,NORAD_CAT_ID,ELEMENT_SET_NO,REV_AT_EPOCH,BSTAR,MEAN_MOTION_DOT,MEAN_MOTION_DDOT
COSMOS 2534 (758),2019-030A,2026-06-27T07:48:11.380608,2.13102451,.00135629,64.3693,192.2752,275.0761,81.5437,0,U,44299,999,5513,0,.1E-5,0
BEIDOU-3 IGSO-2 (C39),2019-035A,2026-06-26T20:34:38.686944,1.00263830,.00395927,55.2494,158.7781,216.4480,327.7946,0,U,44337,999,2576,0,-.73E-6,0
GPS BIII-2  (PRN 18),2019-056A,2026-06-27T14:52:34.735872,2.00570185,.00624996,55.6316,330.7281,197.6941,162.8365,0,U,44506,999,5028,0,-.102E-5,0
BEIDOU-3 M24 (C46),2019-061A,2026-06-26T21:46:59.473920,1.86229246,.00085173,54.3966,182.3996,358.5660,1.4607,0,U,44542,999,4597,0,.93E-6,0
BEIDOU-3 M23 (C45),2019-061B,2026-06-27T07:16:47.089056,1.86227690,.00058534,54.3956,182.3548,338.4891,198.3614,0,U,44543,999,4598,0,.89E-6,0
EUTELSAT 5 WEST B (EGNOS/PRN 121),2019-067A,2026-06-27T22:15:38.750112,1.00271763,.00034484,0.0627,8.1049,88.1823,148.6496,0,U,44624,999,2454,0,-.31E-6,0
BEIDOU-3 M22 (C44),2019-078A,2026-06-27T19:42:59.036832,1.86227394,.00062797,53.9254,299.4529,52.2032,307.8538,0,U,44793,999,4484,0,-.89E-6,0
BEIDOU-3 M21 (C43),2019-078B,2026-06-27T10:11:12.206112,1.86227919,.00040543,53.8986,299.4279,50.0511,309.9834,0,U,44794,999,4484,0,-.92E-6,0
COSMOS 2544 (759),2019-088A,2026-06-25T22:41:15.294624,2.13102928,.00129231,65.5707,73.4383,257.6247,102.2670,0,U,44850,999,5090,0,-.63E-6,0
BEIDOU-3 M19 (C41),2019-090A,2026-06-27T09:37:01.172064,1.86231783,.00174646,56.5676,62.4526,297.4147,244.1150,0,U,44864,999,4442,0,-.76E-6,0
BEIDOU-3 M20 (C42),2019-090B,2026-06-26T03:47:24.031392,1.86231543,.00152731,56.5685,62.5279,312.0808,205.8058,0,U,44865,999,4438,0,-.87E-6,0
BEIDOU-3 G2 (C60),2020-017A,2026-06-27T23:09:10.664064,1.00272039,.00025767,2.8858,47.5161,40.3406,255.5988,0,U,45344,999,2336,0,-.132E-5,0
COSMOS 2545 (760),2020-018A,2026-06-27T01:53:29.152032,2.13102661,.00087431,64.3487,312.0706,229.6309,130.2826,0,U,45358,999,4887,0,-.83E-6,0
BEIDOU-3 G3 (C61),2020-040A,2026-06-27T23:27:46.348128,1.00274087,.00026033,2.4737,67.4760,330.2007,340.8934,0,U,45807,999,2217,0,-.344E-5,0
GPS BIII-3  (PRN 23),2020-041A,2026-06-27T16:59:36.601728,2.00558724,.00645763,56.6768,28.5351,204.4803,157.7037,0,U,45854,999,4425,0,-.76E-6,0
GALAXY 30 (WAAS/PRN 135),2020-056C,2026-06-27T17:02:43.802880,1.00271032,.00022909,0.0287,26.0682,68.9553,311.4613,0,U,46114,999,2139,0,0,0
COSMOS 2547 (705K),2020-075A,2026-06-27T06:26:33.349920,2.13100208,.00094051,64.6001,192.1390,239.7377,120.2212,0,U,46805,999,4412,0,.101E-5,0
GPS BIII-4  (PRN 14),2020-078A,2026-06-27T19:31:40.651680,2.00565150,.00738767,53.9788,210.3474,207.5667,207.5672,0,U,46826,999,4172,0,.82E-6,0
GPS BIII-5  (PRN 11),2021-054A,2026-06-27T17:32:27.452256,2.00568668,.00257378,55.1691,332.0357,228.3381,313.3239,0,U,48859,999,3696,0,-.102E-5,0
QZS-1R (QZSS/PRN 196),2021-096A,2026-06-26T14:51:13.875840,1.00253032,.0755635,37.4804,79.4425,271.9684,279.4688,0,U,49336,999,1710,0,-.312E-5,0
GSAT0223 (GALILEO 27),2021-116A,2026-06-27T12:56:14.335584,1.70476510,.00016938,57.1576,341.3951,183.6278,169.3776,0,U,49809,999,2835,0,-.93E-6,0
GSAT0224 (GALILEO 28),2021-116B,2026-06-27T08:47:14.876160,1.70476529,.00014188,57.1577,341.3987,161.6476,197.8652,0,U,49810,999,2837,0,-.94E-6,0
COSMOS 2557 (706K),2022-075A,2026-06-27T10:23:01.392000,2.13102281,.00103244,64.2922,314.1237,273.3478,86.5234,0,U,52984,999,3093,0,-.82E-6,0
COSMOS 2559 (707K),2022-130A,2026-06-27T17:19:03.381888,2.13101825,.0012766,64.2645,314.1973,179.1655,180.8266,0,U,54031,999,2891,0,-.81E-6,0
COSMOS 2564 (761),2022-161A,2026-06-27T13:33:19.590912,2.13102113,.00122573,64.7427,192.3671,225.0587,134.8937,0,U,54377,999,2785,0,.99E-6,0
GPS BIII-6  (PRN 28),2023-009A,2026-06-27T22:18:56.418624,2.00570960,.00062636,55.1241,148.0967,317.3274,46.4275,0,U,55268,999,2546,0,.27E-6,0
BEIDOU-3 G4 (C62),2023-066A,2026-06-27T23:43:38.777664,1.00270753,.00048702,0.4749,334.2493,175.4033,262.4025,0,U,56564,999,1150,0,-.269E-5,0
NVS-01 (IRNSS-1J),2023-076A,2026-06-27T21:40:38.421408,1.00274357,.00028116,2.1414,243.8590,11.5835,115.2769,0,U,56759,999,1122,0,-.322E-5,0
COSMOS 2569 (703K),2023-114A,2026-06-27T13:51:02.784384,2.13103860,.00102964,65.3079,72.2701,296.6170,63.3226,0,U,57517,999,2248,0,-.48E-6,0
BEIDOU-3 M28 (C50),2023-207A,2026-06-26T23:08:55.616640,1.86229899,.00029669,55.7613,61.9731,353.1453,6.8963,0,U,58654,999,1702,0,-.82E-6,0
BEIDOU-3 M26 (C48),2023-207B,2026-06-26T05:24:05.823360,1.86229867,.0002695,55.7629,61.9846,322.2397,37.7837,0,U,58655,999,1699,0,-.88E-6,0
